[{"OBJECT_NAME":"STARLINK-30152","OBJECT_ID":"2023-079F","EPOCH":"2026-03-09T22:00:01.999584","MEAN_MOTION":15.1944586,"ECCENTRICITY":0.00011484,"INCLINATION":43.0001,"RA_OF_ASC_NODE":105.2934,"ARG_OF_PERICENTER":245.247,"MEAN_ANOMALY":289.956,"EPHEMERIS_TYPE":0,"CLASSIFICATION_TYPE":"U","NORAD_CAT_ID":56828,"ELEMENT_SET_NO":999,"REV_AT_EPOCH":578,"BSTAR":0.053468986,"MEAN_MOTION_DOT":0.01265867,"MEAN_MOTION_DDOT":0},{"OBJECT_NAME":"CZ-6A DEB","OBJECT_ID":"2024-140NJ","EPOCH":"2026-03-09T15:30:01.982592","MEAN_MOTION":15.1004937,"ECCENTRICITY":0.00567225,"INCLINATION":88.9288,"RA_OF_ASC_NODE":275.3548,"ARG_OF_PERICENTER":176.1403,"MEAN_ANOMALY":184.0287,"EPHEMERIS_TYPE":0,"CLASSIFICATION_TYPE":"U","NORAD_CAT_ID":61092,"ELEMENT_SET_NO":999,"REV_AT_EPOCH":8278,"BSTAR":0.0051635532,"MEAN_MOTION_DOT":0.00088127,"MEAN_MOTION_DDOT":0}]
